NORAD_CAT_ID,OBJECT_NAME,OBJECT_TYPE,EPOCH,MEAN_MOTION,ECCENTRICITY,INCLINATION,RA_OF_ASC_NODE,ARG_OF_PERICENTER,MEAN_ANOMALY,BSTAR,MEAN_MOTION_DOT,MEAN_MOTION_DDOT,TLE_LINE0,TLE_LINE1,TLE_LINE2,SEMIMAJOR_AXIS,PERIOD,APOGEE,PERIGEE,DECAYED
49724.0,STARLINK-3219,PAYLOAD,2022-03-11 22:00:00,15.08836257,0.0001767,53.2109,217.8372,50.6962,77.8683,0.002182,0.00034606,0.0,0 STARLINK-3219,1 49724U 21115A   22070.91667824  .00034606  00000-0  21820-2 0  9994,2 49724  53.2109 217.8372 0001767  50.6962  77.8683 15.08836257  3587,6917.892,95.438,540.979,538.534,0.0
49724.0,STARLINK-3219,PAYLOAD,2022-03-12 06:00:00,15.08844328,0.0001525,53.21100000000001,216.33900000000003,56.7703,83.4102,0.00014654,2.045e-05,0.0,0 STARLINK-3219,1 49724U 21115A   22071.25001157  .00002045  00000-0  14654-3 0  9993,2 49724  53.2110 216.3390 0001525  56.7703  83.4102 15.08844328 16463,6917.8669999999975,95.437,540.7869999999998,538.677,0.0
49724.0,STARLINK-3219,PAYLOAD,2022-03-12 14:00:01,15.08845705,0.0001583,53.2112,214.8436,54.4717,97.2633,-0.0016525,-0.00026496,0.0,0 STARLINK-3219,1 49724U 21115A   22071.58334491 -.00026496  00000-0 -16525-2 0  9995,2 49724  53.2112 214.8436 0001583  54.4717  97.2633 15.08845705 16522,6917.863,95.437,540.823,538.633,0.0
49724.0,STARLINK-3219,PAYLOAD,2022-03-12 22:00:00,15.08846715,0.0001672,53.2108,213.3475,48.4436,114.905,0.0016495,0.00026066,0.0,0 STARLINK-3219,1 49724U 21115A   22071.91667824  .00026066  00000-0  16495-2 0  9998,2 49724  53.2108 213.3475 0001672  48.4436 114.9050 15.08846715 16571,6917.86,95.437,540.882,538.568,0.0
49724.0,STARLINK-3219,PAYLOAD,2022-03-13 14:00:01,15.08846173,0.0001476,53.2129,210.3438,48.5598,137.9017,-0.0005287,-8.694e-05,0.0,0 STARLINK-3219,1 49724U 21115A   22072.58334491 -.00008694  00000-0 -52870-3 0  9990,2 49724  53.2129 210.3438 0001476  48.5598 137.9017 15.08846173 16679,6917.861999999999,95.437,540.748,538.705,0.0
49724.0,STARLINK-3219,PAYLOAD,2022-03-13 22:00:01,15.08834028,0.0001528,53.2105,208.8581,45.2892,152.8043,0.00063947,9.902e-05,0.0,0 STARLINK-3219,1 49724U 21115A   22072.91668981  .00009902  00000-0  63947-3 0  9999,2 49724  53.2105 208.8581 0001528  45.2892 152.8043 15.08834028  3591,6917.899,95.438,540.821,538.707,0.0
49724.0,STARLINK-3219,PAYLOAD,2022-03-14 14:00:01,15.08885339,0.0001588,53.2107,205.8647,50.1433,171.1935,-0.0030177,-0.00048054,0.0,0 STARLINK-3219,1 49724U 21115A   22073.58335648 -.00048054  00000-0 -30177-2 0  9995,2 49724  53.2107 205.8647 0001588  50.1433 171.1935 15.08885339 16820,6917.7419999999975,95.435,540.705,538.508,0.0
49724.0,STARLINK-3219,PAYLOAD,2022-03-14 20:00:01,15.08840405,0.0001698,53.2104,204.7429,47.5757,92.422,0.002064,0.00032714,0.0,0 STARLINK-3219,1 49724U 21115A   22073.83334491  .00032714  00000-0  20640-2 0  9996,2 49724  53.2104 204.7429 0001698  47.5757  92.4220 15.08840405  3568,6917.879,95.438,540.919,538.569,0.0
49724.0,STARLINK-3219,PAYLOAD,2022-03-14 22:00:00,15.08873562,0.0001675999999999,53.2103,204.3684,48.7282,184.1628,-0.0022817,-0.00036452,0.0,0 STARLINK-3219,1 49724U 21115A   22073.91667824 -.00036452  00000-0 -22817-2 0  9997,2 49724  53.2103 204.3684 0001676  48.7282 184.1628 15.08873562 16877,6917.778,95.435,540.802,538.4830000000002,0.0
49724.0,STARLINK-3219,PAYLOAD,2022-03-15 02:00:01,15.08874349,0.0001602,53.2106,203.61900000000003,52.4495,6.2544,-0.0045939,-0.00072731,0.0,0 STARLINK-3219,1 49724U 21115A   22074.08334491 -.00072731  00000-0 -45939-2 0  9997,2 49724  53.2106 203.6190 0001602  52.4495   6.2544 15.08874349 16898,6917.775,95.435,540.749,538.5319999999998,0.0
49724.0,STARLINK-3219,PAYLOAD,2022-03-15 22:00:00,15.08784161,0.0001740999999999,53.2106,199.8788,49.1301,218.4749,0.00051373,7.885e-05,0.0,0 STARLINK-3219,1 49724U 21115A   22074.91667824  .00007885  00000-0  51373-3 0  9994,2 49724  53.2106 199.8788 0001741  49.1301 218.4749 15.08784161 17022,6918.051,95.441,541.121,538.712,0.0
49724.0,STARLINK-3219,PAYLOAD,2022-03-16 14:00:01,15.08831205,0.0001733,53.2111,196.8859,49.5627,241.1353,-0.00054357,-8.927e-05,0.0,0 STARLINK-3219,1 49724U 21115A   22075.58334491 -.00008927  00000-0 -54357-3 0  9994,2 49724  53.2111 196.8859 0001733  49.5627 241.1353 15.08831205 17127,6917.906999999997,95.438,540.971,538.573,0.0
49724.0,STARLINK-3219,PAYLOAD,2022-03-16 20:00:01,15.08817656,0.0001773,53.2111,195.7639,45.8753,163.5083,0.0021706,0.00034405,0.0,0 STARLINK-3219,1 49724U 21115A   22075.83334491  .00034405  00000-0  21706-2 0  9991,2 49724  53.2111 195.7639 0001773  45.8753 163.5083 15.08817656  3580,6917.949000000001,95.439,541.04,538.587,0.0
49724.0,STARLINK-3219,PAYLOAD,2022-03-17 06:00:00,15.08824467,0.0001644,53.2115,193.8912,52.8621,261.0161,0.0032501,0.00051796,0.0,0 STARLINK-3219,1 49724U 21115A   22076.25001157  .00051796  00000-0  32501-2 0  9995,2 49724  53.2115 193.8912 0001644  52.8621 261.0161 15.08824467 17221,6917.928000000001,95.439,540.93,538.656,0.0
49724.0,STARLINK-3219,PAYLOAD,2022-03-17 14:00:01,15.08855765,0.0001814,53.2118,192.3963,48.2665,277.208,-0.00045446,-7.517e-05,0.0,0 STARLINK-3219,1 49724U 21115A   22076.58334491 -.00007517  00000-0 -45446-3 0  9998,2 49724  53.2118 192.3963 0001814  48.2665 277.2080 15.08855765  3599,6917.831999999999,95.437,540.952,538.442,0.0
49724.0,STARLINK-3219,PAYLOAD,2022-03-17 22:00:00,15.08884603,0.0001764,53.2119,190.8995,44.3823,292.6971,-0.0042738,-0.0006775,0.0,0 STARLINK-3219,1 49724U 21115A   22076.91667824 -.00067750  00000-0 -42738-2 0  9999,2 49724  53.2119 190.8995 0001764  44.3823 292.6971 15.08884603  3598,6917.744000000002,95.435,540.8290000000002,538.389,0.0
49724.0,STARLINK-3219,PAYLOAD,2022-03-18 08:00:01,15.08843487,0.0001617,53.2124,189.0278,50.2836,31.3148,0.00096201,0.00015057,0.0,0 STARLINK-3219,1 49724U 21115A   22077.33334491  .00015057  00000-0  96201-3 0  9993,2 49724  53.2124 189.0278 0001617  50.2836  31.3148 15.08843487 17386,6917.87,95.437,540.8530000000002,538.616,0.0
49724.0,STARLINK-3219,PAYLOAD,2022-03-18 14:00:01,15.08859974,0.0001757,53.2124,187.9069,44.31100000000001,315.9899,-0.0021875,-0.00034953,0.0,0 STARLINK-3219,1 49724U 21115A   22077.58334491 -.00034953  00000-0 -21875-2 0  9992,2 49724  53.2124 187.9069 0001757  44.3110 315.9899 15.08859974  3629,6917.819,95.436,540.9,538.469,0.0
49724.0,STARLINK-3219,PAYLOAD,2022-03-18 22:00:00,15.08851871,0.0001684,53.2123,186.41,41.0992,330.8079,-0.002278,-0.00036372,0.0,0 STARLINK-3219,1 49724U 21115A   22077.91667824 -.00036372  00000-0 -22780-2 0  9991,2 49724  53.2123 186.4100 0001684  41.0992 330.8079 15.08851871  3612,6917.844,95.437,540.874,538.544,0.0
49724.0,STARLINK-3219,PAYLOAD,2022-03-19 02:00:01,15.08821316,0.0001549,53.2126,185.6608,43.6143,154.1613,0.0015030999999999,0.00023703,0.0,0 STARLINK-3219,1 49724U 21115A   22078.08335648  .00023703  00000-0  15031-2 0  9999,2 49724  53.2126 185.6608 0001549  43.6143 154.1613 15.08821316 17500,6917.937,95.439,540.874,538.731,0.0
49724.0,STARLINK-3219,PAYLOAD,2022-03-19 14:00:01,15.08845102,0.0001737,53.2125,183.4176,42.5796,352.5148,-0.0004359,-7.219999999999999e-05,0.0,0 STARLINK-3219,1 49724U 21115A   22078.58334491 -.00007220  00000-0 -43590-3 0  9999,2 49724  53.2125 183.4176 0001737  42.5796 352.5148 15.08845102  3596,6917.865,95.437,540.931,538.528,0.0
49724.0,STARLINK-3219,PAYLOAD,2022-03-19 22:00:01,15.08869563,0.0001724,53.2122,181.9204,42.5922,4.1601,-0.0044248,-0.00070082,0.0,0 STARLINK-3219,1 49724U 21115A   22078.91668981 -.00070082  00000-0 -44248-2 0  9996,2 49724  53.2122 181.9204 0001724  42.5922   4.1601 15.08869563 17625,6917.79,95.436,540.8480000000002,538.462,0.0
49724.0,STARLINK-3219,PAYLOAD,2022-03-20 14:00:01,15.08834338,0.0001794,53.2122,178.9283,45.2922,24.5848,-0.00021852,-3.764e-05,0.0,0 STARLINK-3219,1 49724U 21115A   22079.58334491 -.00003764  00000-0 -21852-3 0  9996,2 49724  53.2122 178.9283 0001794  45.2922  24.5848 15.08834338 17727,6917.898,95.438,541.004,538.5219999999998,0.0
49724.0,STARLINK-3219,PAYLOAD,2022-03-20 22:00:01,15.088609699999996,0.0001729,53.2117,177.43099999999995,44.8893,36.643,-0.0015052,-0.00024177,0.0,0 STARLINK-3219,1 49724U 21115A   22079.91668981 -.00024177  00000-0 -15052-2 0  9992,2 49724  53.2117 177.4310 0001729  44.8893  36.6430 15.08860970  3600,6917.816,95.436,540.877,538.485,0.0
49724.0,STARLINK-3219,PAYLOAD,2022-03-21 06:00:00,15.08847031,0.0001609,53.2117,175.9336,50.832,42.2457,0.0019131,0.00030296,0.0,0 STARLINK-3219,1 49724U 21115A   22080.25001157  .00030296  00000-0  19131-2 0  9996,2 49724  53.2117 175.9336 0001609  50.8320  42.2457 15.08847031 17824,6917.859,95.437,540.837,538.611,0.0
49724.0,STARLINK-3219,PAYLOAD,2022-03-21 14:00:01,15.08867749,0.0001761,53.2115,174.4389,44.7511,59.9354,-0.0030126,-0.00047952,0.0,0 STARLINK-3219,1 49724U 21115A   22080.58334491 -.00047952  00000-0 -30126-2 0  9998,2 49724  53.2115 174.4389 0001761  44.7511  59.9354 15.08867749  3595,6917.795999999999,95.436,540.879,538.442,0.0
49724.0,STARLINK-3219,PAYLOAD,2022-03-21 22:00:00,15.08852399,0.000168,53.2109,172.9414,44.8227,71.4755,-0.0043928999999999,-0.00069551,0.0,0 STARLINK-3219,1 49724U 21115A   22080.91667824 -.00069551  00000-0 -43929-2 0  9998,2 49724  53.2109 172.9414 0001680  44.8227  71.4755 15.08852399 17926,6917.842,95.437,540.87,538.545,0.0
49724.0,STARLINK-3219,PAYLOAD,2022-03-22 14:00:01,15.08809838,0.0001807,53.2107,169.9494,45.44300000000001,94.0023,0.00074673,0.00011606,0.0,0 STARLINK-3219,1 49724U 21115A   22081.58334491  .00011606  00000-0  74673-3 0  9990,2 49724  53.2107 169.9494 0001807  45.4430  94.0023 15.08809838 18023,6917.973000000001,95.439,541.0880000000002,538.5880000000002,0.0
49724.0,STARLINK-3219,PAYLOAD,2022-03-22 22:00:01,15.08840187,0.0001729,53.2103,168.4518,45.927,105.148,-0.0014470999999999,-0.00023245,0.0,0 STARLINK-3219,1 49724U 21115A   22081.91668981 -.00023245  00000-0 -14471-2 0  9994,2 49724  53.2103 168.4518 0001729  45.9270 105.1480 15.08840187  3601,6917.88,95.438,540.941,538.549,0.0
